[{"OBJECT_NAME":"STARLINK-2022","OBJECT_ID":"2021-012Z","EPOCH":"2026-03-09T22:00:01.999584","MEAN_MOTION":15.95289755,"ECCENTRICITY":0.00034474,"INCLINATION":53.011,"RA_OF_ASC_NODE":336.427,"ARG_OF_PERICENTER":172.1784,"MEAN_ANOMALY":236.3611,"EPHEMERIS_TYPE":0,"CLASSIFICATION_TYPE":"U","NORAD_CAT_ID":47643,"ELEMENT_SET_NO":999,"REV_AT_EPOCH":593,"BSTAR":0.0011750368,"MEAN_MOTION_DOT":0.00472055,"MEAN_MOTION_DDOT":0.00010120796},{"OBJECT_NAME":"STARLINK-36568","OBJECT_ID":"2026-040C","EPOCH":"2026-03-09T22:00:01.999584","MEAN_MOTION":16.0523614,"ECCENTRICITY":8.66e-5,"INCLINATION":97.2778,"RA_OF_ASC_NODE":17.1138,"ARG_OF_PERICENTER":88.8464,"MEAN_ANOMALY":267.6227,"EPHEMERIS_TYPE":0,"CLASSIFICATION_TYPE":"U","NORAD_CAT_ID":68017,"ELEMENT_SET_NO":999,"REV_AT_EPOCH":246,"BSTAR":-0.0017020293,"MEAN_MOTION_DOT":-0.01166094,"MEAN_MOTION_DDOT":0.00046294541}]
